{
  "type": "Feature",
  "properties": {
    "district": 12,
    "name": "12지구"
  },
  "geometry": {
    "type": "Polygon",
    "coordinates": [
      [
        [126.87493684342806, 37.50181353615792],
        [126.8753618523514, 37.501264372090795],
        [126.8762715308089, 37.50169330591514],
        [126.87599944715528, 37.50209396797699],
        [126.87612942167945, 37.50214365962763],
        [126.87648058757684, 37.50179263527752],
        [126.87672637764865, 37.501905517686296],
        [126.87640912163369, 37.50226784080848],
        [126.87548649158596, 37.5028232426245],
        [126.87532545304552, 37.50275099236197],
        [126.87506657280461, 37.50200964207625],
        [126.8750553836781, 37.50193754982111],
        [126.87489718227513, 37.50186079693996],
        [126.87493684342806, 37.50181353615792]
      ]
    ]
  }
}
