{
  "type": "Feature",
  "properties": {
    "district": 1,
    "name": "1지구"
  },
  "geometry": {
    "type": "Polygon",
    "coordinates": [
      [
        [126.88272220868858, 37.50970756594719],
        [126.88464277255744, 37.51114205361776],
        [126.88475036890983, 37.51104755323294],
        [126.88470584714335, 37.51057898770698],
        [126.88482587449363, 37.509754686053114],
        [126.8852669046674, 37.50980467048224],
        [126.8855838301818, 37.50965180718143],
        [126.88641246822142, 37.51141857485818],
        [126.88694414410696, 37.51136952971943],
        [126.88750441370294, 37.51110877349222],
        [126.88731839805328, 37.51070314438681],
        [126.88837073589342, 37.51039780219531],
        [126.88634831326996, 37.50897228700549],
        [126.88735006633382, 37.50844615905416],
        [126.88536163882821, 37.507025163985226],
        [126.88272220868858, 37.50970756594719]
      ]
    ]
  }
}
