{
  "type": "Feature",
  "properties": {
    "district": 13,
    "name": "13지구"
  },
  "geometry": {
    "type": "Polygon",
    "coordinates": [
      [
        [126.87259498132576, 37.50564255730119],
        [126.8746597779405, 37.50518975884633],
        [126.87473441264166, 37.504518589423384],
        [126.87497289122652, 37.50393318887403],
        [126.87514255665981, 37.503919853251716],
        [126.87521619979401, 37.503841093131705],
        [126.87529265516267, 37.50377134598341],
        [126.8757565949249, 37.50362091651132],
        [126.87600842459645, 37.50350405045427],
        [126.87614468886788, 37.50317082152865],
        [126.87639349597501, 37.503171082134315],
        [126.87676835039605, 37.50217135803342],
        [126.87717569051243, 37.50204564152532],
        [126.87762782502362, 37.50219027160253],
        [126.8784649006279, 37.50207400508586],
        [126.87725621216983, 37.50121680031005],
        [126.87641761472987, 37.50226109215463],
        [126.87547801704689, 37.502818728665986],
        [126.8753197908791, 37.50275549141169],
        [126.875038423591, 37.50193527936832],
        [126.87371633665292, 37.501285149610005],
        [126.87132933763736, 37.501733076414084],
        [126.87259498132576, 37.50564255730119]
      ]
    ]
  }
}
