{
  "type": "Feature",
  "properties": {
    "district": 10,
    "name": "10지구"
  },
  "geometry": {
    "type": "Polygon",
    "coordinates": [
      [
        [126.88080891312333, 37.50374775799364],
        [126.88051169764275, 37.50396144642414],
        [126.88063595549762, 37.50405392505992],
        [126.88049437071348, 37.50418893265656],
        [126.88036727823317, 37.50410095602818],
        [126.87975296172064, 37.50458236993466],
        [126.87930394430138, 37.50424628767188],
        [126.87971164201942, 37.50390206912291],
        [126.87920332306169, 37.503523128301],
        [126.87796320578525, 37.50458503953358],
        [126.87683375277317, 37.50366484225413],
        [126.87761510759671, 37.50305297089496],
        [126.87774499670903, 37.503156720980144],
        [126.87840748135548, 37.502612296626914],
        [126.87888755303416, 37.502968686838784],
        [126.87868087247926, 37.50314417075869],
        [126.8791242512015, 37.50346448208747],
        [126.87982050146235, 37.503016942432794],
        [126.88080891312333, 37.50374775799364]
      ]
    ]
  }
}
