{
  "type": "Feature",
  "properties": {
    "district": 2,
    "name": "2지구"
  },
  "geometry": {
    "type": "Polygon",
    "coordinates": [
      [
        [126.88267695297549, 37.509716531047744],
        [126.88196322702186, 37.510459148362564],
        [126.8820476659928, 37.51070700881344],
        [126.88197384946719, 37.510896145913975],
        [126.88197362601838, 37.51103805381276],
        [126.88193670335305, 37.511141632365806],
        [126.88184037489853, 37.51126091906314],
        [126.88179214128614, 37.511364486251594],
        [126.88207945374396, 37.51206980892931],
        [126.88135242015275, 37.51226955421939],
        [126.88247702780896, 37.51279100814888],
        [126.88318605457587, 37.513260233367205],
        [126.88382433705448, 37.513767677388735],
        [126.88442860806177, 37.51433139736613],
        [126.88723557788124, 37.51312676570325],
        [126.88663755724754, 37.51216211928186],
        [126.88631065176065, 37.511431991963626],
        [126.8855668508339, 37.509660800775364],
        [126.88528668755839, 37.50981144722707],
        [126.88483716760132, 37.50976595961583],
        [126.88467952860697, 37.511144342018106],
        [126.88267695297549, 37.509716531047744]
      ]
    ]
  }
}
