{
  "type": "Feature",
  "properties": {
    "district": 7,
    "name": "7지구"
  },
  "geometry": {
    "type": "Polygon",
    "coordinates": [
      [
        [126.87630398916353, 37.506011406312076],
        [126.87700664846749, 37.50685232680316],
        [126.8771622380581, 37.5068051859641],
        [126.8772778886217, 37.5069742445217],
        [126.87754374693243, 37.50692947020104],
        [126.87780898812592, 37.507263116536826],
        [126.87808587144713, 37.50739404827554],
        [126.87856372843909, 37.50739003547384],
        [126.8786405270974, 37.507108550497726],
        [126.8787736382507, 37.5069735365005],
        [126.87681084487497, 37.50556143363152],
        [126.87793776645681, 37.50458050822519],
        [126.87684777123806, 37.503736937270865],
        [126.87765744432518, 37.50309806500522],
        [126.8776123096621, 37.50303494789374],
        [126.87825215362204, 37.50250401601958],
        [126.8780996683102, 37.50238672808724],
        [126.87743152874197, 37.50293114486757],
        [126.876974090281, 37.50257026728894],
        [126.87662172210116, 37.50365110591576],
        [126.87708483498383, 37.5040029806511],
        [126.8766715625166, 37.504290871491484],
        [126.87643349698656, 37.504633004565875],
        [126.87592412356163, 37.50489826707047],
        [126.87655042333131, 37.50574136270497],
        [126.87630398916353, 37.506011406312076]
      ]
    ]
  }
}
