{
  "type": "Feature",
  "properties": {
    "district": 14,
    "name": "14지구"
  },
  "geometry": {
    "type": "Polygon",
    "coordinates": [
      [
        [126.88846862566459, 37.50732096489365],
        [126.8872964511854, 37.508374027560464],
        [126.88537020398948, 37.50697111202219],
        [126.88272662961694, 37.505074154681594],
        [126.88194228695876, 37.50580093477529],
        [126.88145941217171, 37.50540851412118],
        [126.88155622477477, 37.50497838142762],
        [126.88162421449967, 37.50489510662967],
        [126.88133611366646, 37.504707859057454],
        [126.88086906097266, 37.505040760763166],
        [126.88042005016972, 37.50469567272117],
        [126.8812325698972, 37.50403200128433],
        [126.87980920290258, 37.503010173399005],
        [126.88090210485464, 37.502038194667904],
        [126.88361882478658, 37.504072669062836],
        [126.88846862566459, 37.50732096489365]
      ]
    ]
  }
}
