{
  "type": "Feature",
  "properties": {
    "district": 3,
    "name": "3지구"
  },
  "geometry": {
    "type": "Polygon",
    "coordinates": [
      [
        [126.88265440621727, 37.509669205933456],
        [126.88158675506796, 37.50892030698797],
        [126.88152413198105, 37.50918378793413],
        [126.88040726274608, 37.509166894871065],
        [126.88039230179288, 37.5096827046114],
        [126.8797531631378, 37.509745125993675],
        [126.87952745819501, 37.509431797074534],
        [126.87929352267226, 37.50896303607033],
        [126.879186292745, 37.50882777580999],
        [126.87848148363508, 37.50928656499135],
        [126.87735838623698, 37.507891100152584],
        [126.87775460063939, 37.50767076477746],
        [126.87760491842957, 37.50756248924738],
        [126.87745261534015, 37.507328070182936],
        [126.87728071243143, 37.50697649996667],
        [126.87753248478748, 37.506900175878165],
        [126.87780616796107, 37.50725860859715],
        [126.87807738524486, 37.507396292027934],
        [126.87857786235494, 37.50739230251433],
        [126.87865182981412, 37.50711306713196],
        [126.87883874713582, 37.50692630056268],
        [126.87955336881822, 37.507384291180365],
        [126.88030396163528, 37.50656964502992],
        [126.87993673528136, 37.506353031241126],
        [126.88015758071043, 37.506164044525235],
        [126.88035844588357, 37.50609216776441],
        [126.88088790101101, 37.5056399479541],
        [126.88175301812403, 37.50569262489523],
        [126.88193376557817, 37.50582570388882],
        [126.88271530581811, 37.505083153487654],
        [126.88534191523172, 37.50698009461297],
        [126.88265440621727, 37.509669205933456]
      ]
    ]
  }
}
