{
  "type": "Feature",
  "properties": {
    "district": 16,
    "name": "16지구"
  },
  "geometry": {
    "type": "Polygon",
    "coordinates": [
      [
        [126.8749043137677, 37.500975566738184],
        [126.87305115740631, 37.500068079303084],
        [126.87324388541965, 37.4997867220197],
        [126.87341099973739, 37.49960444758109],
        [126.87356975693291, 37.49934783099024],
        [126.87553598781855, 37.50025768209524],
        [126.87513085551758, 37.500759565113796],
        [126.8749043137677, 37.500975566738184]
      ]
    ]
  }
}
