{
  "type": "Feature",
  "properties": {
    "district": 15,
    "name": "15지구"
  },
  "geometry": {
    "type": "Polygon",
    "coordinates": [
      [
        [126.87511484225674, 37.50697873502496],
        [126.8761528307132, 37.50851153532147],
        [126.87736399708112, 37.507918136109225],
        [126.87848149458968, 37.509279807471295],
        [126.87933629520961, 37.508740081218676],
        [126.87951986240452, 37.50887992425147],
        [126.87953945630555, 37.50900383231755],
        [126.87968365534023, 37.50900848430351],
        [126.87974857391309, 37.50908063074774],
        [126.87995497258726, 37.509089850727825],
        [126.8799850625513, 37.50972283673394],
        [126.8803753074384, 37.5097007074847],
        [126.88041028797143, 37.50904300985353],
        [126.88060211821323, 37.50932251521562],
        [126.88151000831904, 37.509174763725206],
        [126.88154436998033, 37.508902244405895],
        [126.882668551265, 37.50966471496391],
        [126.88192649268242, 37.51044334407828],
        [126.88202222079322, 37.510704730891845],
        [126.8819427560104, 37.51088935731161],
        [126.88197077708617, 37.51105156602514],
        [126.88177799941788, 37.51136672460812],
        [126.88204833497801, 37.51207878789667],
        [126.88131282882512, 37.51227176695371],
        [126.88247135824666, 37.51280001254452],
        [126.88318886826833, 37.513269246185885],
        [126.88379327716304, 37.513738364220394],
        [126.88443142541696, 37.514338157648645],
        [126.88007388333588, 37.51606374005418],
        [126.87547226558327, 37.50798373229735],
        [126.87511484225674, 37.50697873502496]
      ]
    ]
  }
}
