{
  "type": "Feature",
  "properties": {
    "district": 8,
    "name": "8지구"
  },
  "geometry": {
    "type": "Polygon",
    "coordinates": [
      [
        [126.87577073177691, 37.5036209313791],
        [126.87596547005603, 37.503832872189854],
        [126.87587198383693, 37.503943147102476],
        [126.87642786815758, 37.50461723109251],
        [126.87665742553779, 37.504290856731295],
        [126.877076352829, 37.50400297182492],
        [126.87661889843629, 37.50364885045403],
        [126.87697126664608, 37.502568011835265],
        [126.87742870139739, 37.50293114193394],
        [126.87809966098601, 37.502391233105826],
        [126.87824649164953, 37.50250851521012],
        [126.87761796068246, 37.50303720626115],
        [126.8777478277349, 37.50315447139723],
        [126.87840747039684, 37.5026190541546],
        [126.87887340174775, 37.502977682380745],
        [126.87868652718474, 37.503144176565954],
        [126.87911860373502, 37.5034599712832],
        [126.87980636111116, 37.50301918055905],
        [126.88117391583286, 37.501792944440865],
        [126.87832647010536, 37.500265094212054],
        [126.87038253750175, 37.49662559183088],
        [126.87053651575997, 37.49913956698918],
        [126.87181478023389, 37.49892471956945],
        [126.87296238399725, 37.49906561512672],
        [126.8735499854614, 37.49933654725783],
        [126.87552750608786, 37.50025767315859],
        [126.87725061292163, 37.501183006789475],
        [126.8784592715619, 37.50205823170202],
        [126.87762214465542, 37.502206033309974],
        [126.87717568682264, 37.50204789403465],
        [126.87676269206213, 37.50217360464372],
        [126.87638219027478, 37.503168817791135],
        [126.87614470747252, 37.50315955898451],
        [126.87600842832151, 37.50350179794558],
        [126.87577073177691, 37.5036209313791]
      ]
    ]
  }
}
