{
  "type": "Feature",
  "properties": {
    "district": 17,
    "name": "17지구"
  },
  "geometry": {
    "type": "Polygon",
    "coordinates": [
      [
        [126.88731625081321, 37.508369541427996],
        [126.88848275651925, 37.50732548325773],
        [126.89205400667474, 37.50922091009178],
        [126.89123230797357, 37.510391461789965],
        [126.89014495413585, 37.5114446302433],
        [126.88872971627947, 37.51238935960759],
        [126.88723563210434, 37.513090725608386],
        [126.8864209443918, 37.51142308802838],
        [126.88729508940706, 37.51116038167872],
        [126.88714580356971, 37.51077505993624],
        [126.88837640456532, 37.510388797511375],
        [126.88637094409978, 37.50896555124536],
        [126.88736421425521, 37.50843941501281],
        [126.88731625081321, 37.508369541427996]
      ]
    ]
  }
}
