{
  "type": "Feature",
  "properties": {
    "district": 11,
    "name": "11지구"
  },
  "geometry": {
    "type": "Polygon",
    "coordinates": [
      [
        [126.87442832513693, 37.501576482811096],
        [126.87492555300628, 37.50180226163826],
        [126.87536751814645, 37.50125762052823],
        [126.87627154195968, 37.501686548386935],
        [126.87600794771828, 37.502082714333966],
        [126.87613790734466, 37.50214141601221],
        [126.87648059499814, 37.50178813025875],
        [126.87673769057487, 37.501903276978],
        [126.87721104577531, 37.50117395561488],
        [126.87554446581069, 37.50025994354115],
        [126.87442832513693, 37.501576482811096]
      ]
    ]
  }
}
