{
  "type": "Feature",
  "properties": {
    "district": 4,
    "name": "4지구"
  },
  "geometry": {
    "type": "Polygon",
    "coordinates": [
      [
        [126.87065707911754, 37.49972310018804],
        [126.8729494379693, 37.50003192972691],
        [126.87303137438138, 37.5000635530143],
        [126.87334868679282, 37.49967195621176],
        [126.87340534529997, 37.49960444152177],
        [126.87356126770973, 37.49935232693274],
        [126.87296520356384, 37.49907012318722],
        [126.87183456673438, 37.49892699355209],
        [126.87053933129455, 37.49914632761713],
        [126.87065707911754, 37.49972310018804]
      ]
    ]
  }
}
