{
  "type": "Feature",
  "properties": {
    "district": 6,
    "name": "6지구"
  },
  "geometry": {
    "type": "Polygon",
    "coordinates": [
      [
        [126.87259498898156, 37.50563805228603],
        [126.8746597779405, 37.50518975884633],
        [126.87473159276463, 37.5045140814087],
        [126.87496441283675, 37.50393092738777],
        [126.8751453840414, 37.503919856240124],
        [126.87529265890926, 37.503769093474894],
        [126.8757650770361, 37.503620925432195],
        [126.87595981529918, 37.50383286625224],
        [126.87586350914818, 37.503938633172204],
        [126.8764108888568, 37.50462622337811],
        [126.87591563384979, 37.504902763177064],
        [126.87654760329919, 37.5057368547343],
        [126.87630116541953, 37.50600915084351],
        [126.87700381727947, 37.50685457636659],
        [126.87715657938578, 37.5068074325909],
        [126.87728635636425, 37.50698326336387],
        [126.87743283013299, 37.507323544632946],
        [126.87761058450049, 37.50755573758492],
        [126.87774609970226, 37.50768201853483],
        [126.87616980720522, 37.50850479558729],
        [126.87513185976475, 37.50694721785755],
        [126.87367052237512, 37.508339968347165],
        [126.87259498898156, 37.50563805228603]
      ]
    ]
  }
}
