{
  "type": "Feature",
  "properties": {
    "district": 9,
    "name": "9지구"
  },
  "geometry": {
    "type": "Polygon",
    "coordinates": [
      [
        [126.87680803223654, 37.505552420650986],
        [126.87882463514525, 37.50691051850765],
        [126.87957605405113, 37.50734376910775],
        [126.88027286652704, 37.50656510849425],
        [126.879945239346, 37.50633952481479],
        [126.88013780284844, 37.506155014411625],
        [126.8803641151899, 37.506083163459486],
        [126.88087377451312, 37.505633176173234],
        [126.88175585978391, 37.50568361769222],
        [126.88145657048678, 37.50541752131744],
        [126.88159876772806, 37.50489508112663],
        [126.88135023290268, 37.504719135801224],
        [126.8808747194007, 37.505038513957416],
        [126.88041722994382, 37.504691164841766],
        [126.88120428532531, 37.50403873038084],
        [126.88090493298013, 37.50381768272864],
        [126.8804915612735, 37.50417766725216],
        [126.88037293301113, 37.504100961754844],
        [126.87973878855388, 37.504604880628975],
        [126.87928130701233, 37.504257527102205],
        [126.87968902296804, 37.50390204608811],
        [126.87940099238394, 37.50367650112836],
        [126.87903914680255, 37.503640090959735],
        [126.87680803223654, 37.505552420650986]
      ]
    ]
  }
}
