{
  "type": "Feature",
  "properties": {
    "district": 5,
    "name": "5지구"
  },
  "geometry": {
    "type": "Polygon",
    "coordinates": [
      [
        [126.87441138024185, 37.50156520223116],
        [126.8749042912203, 37.500989081795524],
        [126.8738478241129, 37.500433839973375],
        [126.87325454327241, 37.50017191332876],
        [126.8729466031014, 37.5000364317057],
        [126.87066272190786, 37.49972986390793],
        [126.87131528232578, 37.501685758327184],
        [126.87374752398783, 37.50123337513725],
        [126.87441138024185, 37.50156520223116]
      ]
    ]
  }
}
